[{"OBJECT_NAME":"STARLINK-1300","OBJECT_ID":"2020-019Q","EPOCH":"2026-03-10T00:00:02.999808","MEAN_MOTION":15.2932329,"ECCENTRICITY":9.061e-5,"INCLINATION":53.155,"RA_OF_ASC_NODE":163.7958,"ARG_OF_PERICENTER":78.2893,"MEAN_ANOMALY":201.7903,"EPHEMERIS_TYPE":0,"CLASSIFICATION_TYPE":"U","NORAD_CAT_ID":45374,"ELEMENT_SET_NO":999,"REV_AT_EPOCH":569,"BSTAR":0.00056718198,"MEAN_MOTION_DOT":0.0001603,"MEAN_MOTION_DDOT":0},{"OBJECT_NAME":"CZ-6A DEB","OBJECT_ID":"2024-140ZM","EPOCH":"2026-03-09T08:08:19.885920","MEAN_MOTION":14.97554426,"ECCENTRICITY":0.01813088,"INCLINATION":90.2734,"RA_OF_ASC_NODE":12.4689,"ARG_OF_PERICENTER":116.477,"MEAN_ANOMALY":245.5188,"EPHEMERIS_TYPE":0,"CLASSIFICATION_TYPE":"U","NORAD_CAT_ID":61455,"ELEMENT_SET_NO":999,"REV_AT_EPOCH":8308,"BSTAR":0.00078895456,"MEAN_MOTION_DOT":0.00012969,"MEAN_MOTION_DDOT":0}]
